{
  "norad_id": 68416,
  "name": "TRANSPORTER-16 OBJECT A",
  "history": [
    {
      "epoch": "2026-04-14T03:06:40.749120Z",
      "apogee_km": 512.595977283715,
      "perigee_km": 507.22743212326895,
      "latitude_deg": -4.160827596440728e-05,
      "longitude_deg": 174.59202660856275,
      "height_km": 514.1125012678538,
      "semi_major_axis_km": 6888.048704703492,
      "eccentricity": 0.0003897,
      "inclination_deg": 97.4492,
      "raan_deg": 63.5723,
      "arg_perigee_deg": 114.6467,
      "mean_anomaly_deg": 245.5173,
      "mean_motion_rev_day": 15.18652635
    },
    {
      "epoch": "2026-04-16T19:56:47.607648Z",
      "apogee_km": 512.6091331518082,
      "perigee_km": 507.08496994246707,
      "latitude_deg": 3.3972454277606884e-05,
      "longitude_deg": -77.93694416337595,
      "height_km": 513.8496734779952,
      "semi_major_axis_km": 6887.984051547137,
      "eccentricity": 0.000401,
      "inclination_deg": 97.4501,
      "raan_deg": 66.2346,
      "arg_perigee_deg": 109.4945,
      "mean_anomaly_deg": 250.6723,
      "mean_motion_rev_day": 15.18674017
    }
  ]
}